STARLINK-4542           
1 53435U 22097AZ  26068.80252729 -.00000377  00000+0 -56216-5 0  9990
2 53435  53.2163 103.4146 0001122  89.4077 270.7043 15.08841284198789
PRSC-S1                 
1 65055U 25164A   26068.60758212  .00007316  00000+0  46631-3 0  9991
2 65055  41.1290 129.3637 0004466 348.3012  11.7698 15.08919510 33403
